{
    "links": {
        "self": "http://www.neowsapp.com/rest/v1/neo/3775117?api_key=iIulBulltgU6a56xZRHN4H3l9WmuAYTsLGpBGhQ2"
    },
    "id": "3775117",
    "neo_reference_id": "3775117",
    "name": "(2017 HJ61)",
    "designation": "2017 HJ61",
    "nasa_jpl_url": "http://ssd.jpl.nasa.gov/sbdb.cgi?sstr=3775117",
    "absolute_magnitude_h": 28.862,
    "estimated_diameter": {
        "kilometers": {
            "estimated_diameter_min": 0.0044890555,
            "estimated_diameter_max": 0.0100378333
        },
        "meters": {
            "estimated_diameter_min": 4.4890555188,
            "estimated_diameter_max": 10.0378332947
        },
        "miles": {
            "estimated_diameter_min": 0.0027893689,
            "estimated_diameter_max": 0.0062372185
        },
        "feet": {
            "estimated_diameter_min": 14.7278729081,
            "estimated_diameter_max": 32.9325249866
        }
    },
    "is_potentially_hazardous_asteroid": false,
    "close_approach_data": [
        {
            "close_approach_date": "2017-04-22",
            "close_approach_date_full": "2017-Apr-22 21:09",
            "epoch_date_close_approach": 1492895340000,
            "relative_velocity": {
                "kilometers_per_second": "14.9055793386",
                "kilometers_per_hour": "53660.0856188023",
                "miles_per_hour": "33342.2904224164"
            },
            "miss_distance": {
                "astronomical": "0.0056613388",
                "lunar": "2.2022607932",
                "kilometers": "846924.225828356",
                "miles": "526254.3111930728"
            },
            "orbiting_body": "Moon"
        },
        {
            "close_approach_date": "2017-04-23",
            "close_approach_date_full": "2017-Apr-23 00:02",
            "epoch_date_close_approach": 1492905720000,
            "relative_velocity": {
                "kilometers_per_second": "14.0130021772",
                "kilometers_per_hour": "50446.8078378008",
                "miles_per_hour": "31345.6845701046"
            },
            "miss_distance": {
                "astronomical": "0.0034292668",
                "lunar": "1.3339847852",
                "kilometers": "513011.008941716",
                "miles": "318770.2593830408"
            },
            "orbiting_body": "Earth"
        }
    ],
    "orbital_data": {
        "orbit_id": "1",
        "orbit_determination_date": "2017-05-31 06:18:09",
        "first_observation_date": "2017-04-27",
        "last_observation_date": "2017-04-28",
        "data_arc_in_days": 1,
        "observations_used": 6,
        "orbit_uncertainty": "9",
        "minimum_orbit_intersection": "8.84454E-5",
        "jupiter_tisserand_invariant": "3.812",
        "epoch_osculation": "2457871.5",
        "eccentricity": ".5697986014034291",
        "semi_major_axis": "1.83482529460731",
        "inclination": ".7852255616302045",
        "ascending_node_longitude": "212.7364025702734",
        "orbital_period": "907.8006822406475",
        "perihelion_distance": ".78934440792043",
        "perihelion_argument": "293.8305145829952",
        "aphelion_distance": "2.88030618129419",
        "perihelion_time": "2457821.944817596639",
        "mean_anomaly": "19.65174295879282",
        "mean_motion": ".3965628216002686",
        "equinox": "J2000",
        "orbit_class": {
            "orbit_class_type": "APO",
            "orbit_class_description": "Near-Earth asteroid orbits which cross the Earth’s orbit similar to that of 1862 Apollo",
            "orbit_class_range": "a (semi-major axis) > 1.0 AU; q (perihelion) < 1.017 AU"
        }
    },
    "is_sentry_object": false
}